#dP2021 10  5  0  0  0.00000000      96 __u+U ITR00 FIT  IAC
## 2178 172800.00000000   900.00000000 59492 0.0000000000000
+  127   C01C02C03C04C05C06C07C08C09C10C11C12C13C14C16C19C20
+        C21C22C23C24C25C26C27C28C29C30C32C33C34C35C36C37C38
+        C39C40C41C42C43C44C45C46C59C60E01E02E03E04E05E07E08
+        E09E11E12E13E14E15E18E19E21E24E25E26E27E30E31E33E36
+        G01G02G03G04G05G06G07G08G09G10G12G13G14G15G16G17G18
+        G19G20G21G22G23G24G25G26G27G28G29G30G31G32J01J02J03
+        J07R01R02R03R04R05R06R07R08R09R10R11R12R13R14R15R16
+        R17R18R19R20R21R22R23R24  0  0  0  0  0  0  0  0  0
++         0  0  0  0  0  0  0  0  0  0  0  0  0  0  0  0  0
++         0  0  0  0  0  0  0  0  0  0  0  0  0  0  0  0  0
++         0  0  0  0  0  0  0  0  0  0  0  0  0  0  0  0  0
++         0  0  0  0  0  0  0  0  0  0  0  0  0  0  0  0  0
++         0  0  0  0  0  0  0  0  0  0  0  0  0  0  0  0  0
++         0  0  0  0  0  0  0  0  0  0  0  0  0  0  0  0  0
++         0  0  0  0  0  0  0  0  0  0  0  0  0  0  0  0  0
++         0  0  0  0  0  0  0  0  0  0  0  0  0  0  0  0  0
%c M  cc GPS ccc cccc cccc cccc cccc ccccc ccccc ccccc ccccc
%c cc cc ccc ccc cccc cccc cccc cccc ccccc ccccc ccccc ccccc
%f  0.0000000  0.000000000  0.00000000000  0.000000000000000
%f  0.0000000  0.000000000  0.00000000000  0.000000000000000
%i    0    0    0    0      0      0      0      0         0
%i    0    0    0    0      0      0      0      0         0
/* INFORMATION & ANALYSIS CENTER (IAC)            RAPID DATA
/* S/V CLOCKS ARE ALIGNED TO GNSS TIME                      
/* G:C1WC2W R:C1PC2P E:C1XC5X C:C2IC6I J:C1CC2S             
/* PCV:IGS14_2163 OL/AL:FES2004  NONE     YN ORB:CoN CLK:CoN
*  2021 10 05 23 30  0.00000000
PC01 -34279.097605  24521.216159    206.835264   -573.271461
PC02   4262.661954  41945.246328    107.353335    275.152237
PC03 -14754.168210  39460.639777   1047.564254    -64.477552
PC04 -39577.247630  14482.555351    410.237159    151.187162
PC05  21901.213849  36018.461975   -114.590861    257.855880
PC06 -15015.042060  24708.483427 -30761.777572    292.299146
PC07 -12757.708457  40060.233664  -2003.199644   -181.332049
PC08   1626.352537  29106.077105  30521.745081   -892.618177
PC09  -5424.280816  24627.770671 -33531.950025   -161.163979
PC10  -6418.716554  41085.536638   5464.614030      4.774362
PC11 -16456.093591 -11262.061654 -19436.164545    614.541326
PC12   3737.376219 -15503.055292 -22867.694762    744.565455
PC13   7707.924462  32837.419074  25582.313384    432.483863
PC14  -7766.495548 -17631.543158  20220.445361    603.101040
PC16 -18777.020631  23764.733413 -29289.050517   -777.015432
PC19  13768.819459   8006.931820 -22897.756411    952.669222
PC20   1845.524510  23096.292660 -15529.773589   -795.496313
PC21  11923.929912 -25191.662501  -1587.489485   -931.663141
PC22  18193.598258 -12258.102682 -17270.093579   -955.738566
PC23 -18031.038412   1240.793772 -21248.866616   -967.120963
PC24 -10525.881047 -24407.653492   8451.409832   -970.067046
PC25 -21006.880618 -15484.718221  -9853.657396   -844.395989
PC26   3961.215003 -18625.503534  20382.414744    840.259972
PC27 -13947.655365  14731.802263  19148.152707    608.519566
PC28 -26880.168907   5940.386120   4538.175573    -18.280535
PC29  24234.086364   5433.943794  12724.025320    456.571151
PC30   6985.093853  14803.401127  22595.037589    482.652734
PC32 -11774.880229  25241.526080   1668.684917   -959.162682
PC33 -13785.620941  -8072.830292  22877.225906   -967.825930
PC34  -7952.943848 -14616.892962 -22412.806568   -566.384640
PC35  26776.825236  -6632.817068  -4124.619554    -59.831487
PC36  20583.902818  16284.303140   9518.885143   -772.598355
PC37  -5189.793569  17890.017782 -20762.738901   -871.290196
PC38  -6775.671880  25558.813777  32886.990193    180.254819
PC39 -23895.160022  23805.678910 -25402.981309     33.513234
PC40 -18355.782760  37540.243635  -4929.080837    205.823595
PC41 -18208.281514  11906.751714  17520.139405   -926.879670
PC42  -1257.950219 -23590.963052  14898.950439   -967.206243
PC43 -23879.693967  -5981.834433 -13163.915424   -946.320541
PC44  13585.254139 -15280.109369 -18989.035618    420.446629
PC45  17871.225826  -1375.659005  21404.395789    566.160368
PC46  11528.218244  24340.193079  -7374.591495     53.163552
PC59      0.000000      0.000000      0.000000 999999.999999
PC60   7299.275683  41493.126920   1603.149840     -0.671212
PE01   6942.869386 -24313.635071  15395.087095   -489.353495
PE02  -6831.124776  24430.547776 -15258.102689    251.517460
PE03 -17164.629920  22207.769984  -9387.481256   -482.029585
PE04   -859.907145 -19467.665042  22281.104553   -871.571137
PE05 -25444.256919  11949.851168   9263.992127   -243.997656
PE07  18798.933313   5137.770747 -22283.472303   -592.945123
PE08   1264.022852  19168.951443 -22521.587440   5926.367998
PE09 -18853.705471  -4793.951223  22302.380303   5508.105559
PE11 -26584.027228 -12569.376015  -3410.154740   5314.922060
PE12 -11455.036841 -18438.161794 -20128.920964   4975.138767
PE13  26429.553835  12748.364863   3918.585550    422.276194
PE14  14035.275111 -22991.196172 -17681.239459  -1594.854311
PE15  11505.575280  18345.128299  20188.430149    788.410302
PE18 -14013.348352  16119.667787  10577.907182  -1751.312108
PE19  18944.000252 -21563.456924   7229.994460    394.957045
PE21  15612.492200  -6656.571566  24258.739836   -691.953349
PE24 -15432.806074 -16749.281945 -18896.486572  -1155.400783
PE25 -15660.006517   6405.676081 -24273.373943   -549.040622
PE26  25315.261396  -1039.637964 -15314.826324   1263.410947
PE27  15752.395398  15699.328507  19550.152493   -135.824252
PE30   5755.240248  28957.709003   2227.237212   2563.774418
PE31  -6610.391950 -28653.697277  -3354.506737   -486.424735
PE33  10159.123867 -13112.543704 -24513.353025   -464.101401
PE36 -25747.484376    328.027909  14596.437886   -272.000317
PG01 -22460.010114 -14498.654894  -1067.199555    547.617276
PG02   5689.824805  17867.676962  19436.939523   -635.992735
PG03 -12429.218441 -14479.068896  18414.287955   -314.296091
PG04 -18714.744450  -4704.069455  18282.905744   -203.948927
PG05   6483.399381  24350.774361  -8299.907629    -56.703632
PG06  -8680.887393  11922.694147  22151.044546     88.456285
PG07 -23223.552435  -3641.930948 -12456.457004    257.556537
PG08  -8870.617454 -12286.518138 -21834.599999    -39.035576
PG09 -23926.085771   5849.407693   9902.399304   -361.649981
PG10  11734.172072 -16517.112849 -16900.572421   -217.783053
PG12  10812.394895  16302.672486  17777.131540   -107.366466
PG13     91.345537  15828.546027 -21452.667748    195.399097
PG14 -12679.926591  16342.095649 -16630.728013    -13.076934
PG15  11059.434960  11783.445930 -21487.819245   -116.074181
PG16   -777.434450 -25866.756964  -5014.225240   -402.234137
PG17 -22626.175117  13566.088939   3557.661531    514.954844
PG18  22199.795219   2088.611630 -14512.972750    313.989892
PG19 -17908.921880  15814.882357  11156.166123     62.058131
PG20    974.861671  26431.682616   3646.892885    518.785860
PG21 -19529.143709 -16104.613958  -8220.165886    146.209997
PG22 -11230.405442 -20723.596006  12612.501697   -496.318027
PG23  14868.693340  -4442.258035 -21570.501353     48.726778
PG24  21186.211934  15390.140096  -5863.908775    248.543082
PG25  14813.758166   5273.274519  21178.835405    219.703063
PG26   5379.768171 -24386.035870   8553.071569    141.778688
PG27   2099.244155 -17013.199069 -20363.750338   -202.378136
PG28  -9778.987032  22049.731917 -10795.262918    488.026859
PG29  23316.952551  -1604.593051  12634.431007   -421.997030
PG30 -16713.649655   6537.276144 -19579.948253   -479.640291
PG31   7315.358189 -13421.603972  21605.910036   -143.427779
PG32  19955.897772 -16321.711423   6101.596806     -7.172695
PJ01 -33869.019553  24733.075973   9268.825813    181.295795
PJ02 -19507.114087  26879.305890 -21464.675413     -3.159887
PJ03 -30575.686626  24620.063226  20399.730200     -3.230689
PJ07      0.000000      0.000000      0.000000 999999.999999
PR01  16590.969839 -14489.900590 -12878.344860     86.289527
PR02  10737.435758 -21941.973808   7264.071425    495.660146
PR03  -1632.196303 -15101.138091  20511.086119     44.191618
PR04 -12649.075067    182.765305  22171.762766    108.023041
PR05 -16869.051575  15297.379668  11523.833412     80.173939
PR06  -9480.685815  22261.835116  -8133.287498     -7.946287
PR07   2013.910142  14694.924653 -20736.224321    -40.817936
PR08  12740.327773   -197.966987 -22044.924654    -61.338152
PR09   1717.661681  20109.586144 -15531.062270     16.763417
PR10  11447.167982  22833.576114   -451.480292    -75.680711
PR11  15107.393308  12541.800398  16290.295865     49.885212
PR12   9496.543374  -5596.575765  23035.001441    267.680709
PR13  -1293.853519 -19586.961362  16281.107831    -61.694655
PR14 -11794.126314 -22612.989600   -803.237822     69.577460
PR15 -14962.884880 -12179.633969 -16661.165683    101.034505
PR16  -8763.776396   7239.270473 -22857.329534    -22.645732
PR17 -12331.597332  -9944.983426 -19966.760165    464.155136
PR18 -24180.097974  -4821.196347  -6604.499251     92.790614
PR19 -23651.391541   1758.024706   9370.689818   -162.010921
PR20  -7756.302906   9213.559924  22497.869386    -57.042421
PR21  13648.899405   9696.520462  19259.357390   -244.557989
PR22  24407.952503   4537.351629   5651.845042   -137.207820
PR23  20022.035077  -5068.313252 -14983.305577    -15.565888
PR24   6855.186542  -9956.667662 -22448.870593     61.500003
EOF
